start=new Date('2021-08-26T00:00:00.000Z').valueOf();
sats=[{"LAUNCH_DATE":"2020-06-13","MEAN_ANOMALY":"268.4216","TLE_LINE1":"1 45785U 20038BH  21237.84852234  .00000581  00000-0  57957-4 0  9994","EPOCH":"2021-08-25T20:21:52.330176","CLASSIFICATION_TYPE":"U","SITE":"AFETR","TLE_LINE2":"2 45785  53.0558  74.4821 0001998  91.7001 268.4216 15.06392104 67034","OBJECT_TYPE":"PAYLOAD","APOAPSIS":"548.621","MEAN_MOTION":"15.06392104","TIME_SYSTEM":"UTC","MEAN_ELEMENT_THEORY":"SGP4","INCLINATION":"53.0558","ELEMENT_SET_NO":"999","GP_ID":"183444272","ARG_OF_PERICENTER":"91.7001","RCS_SIZE":"LARGE","DECAY_DATE":null,"SEMIMAJOR_AXIS":"6925.373","EPHEMERIS_TYPE":"0","PERIAPSIS":"545.854","BSTAR":"0.00005795700000","ECCENTRICITY":"0.00019980","MEAN_MOTION_DDOT":"0.0000000000000","RA_OF_ASC_NODE":"74.4821","OBJECT_ID":"2020-038BH","REV_AT_EPOCH":"6703","REF_FRAME":"TEME","MEAN_MOTION_DOT":"0.00000581","COUNTRY_CODE":"US","NORAD_CAT_ID":"45785","PERIOD":"95.593","FILE":"3103208","OBJECT_NAME":"STARLINK-1512","CENTER_NAME":"EARTH"},{"RA_OF_ASC_NODE":"74.2449","OBJECT_ID":"2020-038BJ","REV_AT_EPOCH":"6704","REF_FRAME":"TEME","COUNTRY_CODE":"US","MEAN_MOTION_DOT":"0.00000748","NORAD_CAT_ID":"45786","FILE":"3103208","PERIOD":"95.592","OBJECT_NAME":"STARLINK-1513","CENTER_NAME":"EARTH","DECAY_DATE":null,"SEMIMAJOR_AXIS":"6925.348","EPHEMERIS_TYPE":"0","PERIAPSIS":"545.839","BSTAR":"0.00006912800000","ECCENTRICITY":"0.00019840","MEAN_MOTION_DDOT":"0.0000000000000","SITE":"AFETR","TLE_LINE2":"2 45786  53.0557  74.2449 0001984  98.7678 261.3535 15.06400265 67045","OBJECT_TYPE":"PAYLOAD","APOAPSIS":"548.587","MEAN_MOTION":"15.06400265","TIME_SYSTEM":"UTC","MEAN_ELEMENT_THEORY":"SGP4","ELEMENT_SET_NO":"999","INCLINATION":"53.0557","GP_ID":"183445018","ARG_OF_PERICENTER":"98.7678","RCS_SIZE":"LARGE","MEAN_ANOMALY":"261.3535","LAUNCH_DATE":"2020-06-13","TLE_LINE1":"1 45786U 20038BJ  21237.90012458  .00000748  00000-0  69128-4 0  9996","EPOCH":"2021-08-25T21:36:10.763712","CLASSIFICATION_TYPE":"U"},{"MEAN_MOTION_DDOT":"0.0000000000000","ECCENTRICITY":"0.00020800","BSTAR":"0.00007074200000","PERIAPSIS":"545.768","EPHEMERIS_TYPE":"0","SEMIMAJOR_AXIS":"6925.343","DECAY_DATE":null,"CENTER_NAME":"EARTH","OBJECT_NAME":"STARLINK-1517","PERIOD":"95.592","FILE":"3103208","NORAD_CAT_ID":"45787","COUNTRY_CODE":"US","MEAN_MOTION_DOT":"0.00000772","REV_AT_EPOCH":"6704","REF_FRAME":"TEME","OBJECT_ID":"2020-038BK","RA_OF_ASC_NODE":"74.2066","EPOCH":"2021-08-25T21:46:47.753760","CLASSIFICATION_TYPE":"U","TLE_LINE1":"1 45787U 20038BK  21237.90749715  .00000772  00000-0  70742-4 0  9991","LAUNCH_DATE":"2020-06-13","MEAN_ANOMALY":"268.4161","ARG_OF_PERICENTER":"91.7066","RCS_SIZE":"LARGE","GP_ID":"183444777","ELEMENT_SET_NO":"999","INCLINATION":"53.0549","MEAN_ELEMENT_THEORY":"SGP4","TIME_SYSTEM":"UTC","MEAN_MOTION":"15.06401726","APOAPSIS":"548.649","OBJECT_TYPE":"PAYLOAD","SITE":"AFETR","TLE_LINE2":"2 45787  53.0549  74.2066 0002080  91.7066 268.4161 15.06401726 67040"},{"ELEMENT_SET_NO":"999","INCLINATION":"53.0566","GP_ID":"183444543","ARG_OF_PERICENTER":"102.5363","RCS_SIZE":"LARGE","SITE":"AFETR","TLE_LINE2":"2 46027  53.0566   4.3300 0001404 102.5363 257.5783 15.06402928 59160","TIME_SYSTEM":"UTC","MEAN_ELEMENT_THEORY":"SGP4","OBJECT_TYPE":"PAYLOAD","APOAPSIS":"548.177","MEAN_MOTION":"15.06402928","EPOCH":"2021-08-25T21:08:17.696832","CLASSIFICATION_TYPE":"U","LAUNCH_DATE":"2020-08-07","MEAN_ANOMALY":"257.5783","TLE_LINE1":"1 46027U 20055A   21237.88076038  .00001248  00000-0  10263-3 0  9996","COUNTRY_CODE":"US","MEAN_MOTION_DOT":"0.00001248","NORAD_CAT_ID":"46027","PERIOD":"95.592","FILE":"3103208","CENTER_NAME":"EARTH","OBJECT_NAME":"STARLINK-1522","RA_OF_ASC_NODE":"4.3300","REF_FRAME":"TEME","REV_AT_EPOCH":"5916","OBJECT_ID":"2020-055A","BSTAR":"0.00010263000000","ECCENTRICITY":"0.00014040","MEAN_MOTION_DDOT":"0.0000000000000","EPHEMERIS_TYPE":"0","DECAY_DATE":null,"SEMIMAJOR_AXIS":"6925.340","PERIAPSIS":"546.232"},{"MEAN_MOTION_DOT":"-0.00000350","COUNTRY_CODE":"US","NORAD_CAT_ID":"46028","PERIOD":"95.592","FILE":"3103208","CENTER_NAME":"EARTH","OBJECT_NAME":"STARLINK-1523","RA_OF_ASC_NODE":"4.8640","OBJECT_ID":"2020-055B","REV_AT_EPOCH":"5916","REF_FRAME":"TEME","BSTAR":"-0.00000458240000","ECCENTRICITY":"0.00012310","MEAN_MOTION_DDOT":"0.0000000000000","DECAY_DATE":null,"SEMIMAJOR_AXIS":"6925.357","EPHEMERIS_TYPE":"0","PERIAPSIS":"546.370","INCLINATION":"53.0570","ELEMENT_SET_NO":"999","GP_ID":"183445804","RCS_SIZE":"LARGE","ARG_OF_PERICENTER":"122.5770","SITE":"AFETR","TLE_LINE2":"2 46028  53.0570   4.8640 0001231 122.5770 237.5338 15.06397097 59164","OBJECT_TYPE":"PAYLOAD","MEAN_MOTION":"15.06397097","APOAPSIS":"548.075","TIME_SYSTEM":"UTC","MEAN_ELEMENT_THEORY":"SGP4","CLASSIFICATION_TYPE":"U","EPOCH":"2021-08-25T18:18:27.508032","MEAN_ANOMALY":"237.5338","LAUNCH_DATE":"2020-08-07","TLE_LINE1":"1 46028U 20055B   21237.76281838 -.00000350  00000-0 -45824-5 0  9998"},{"REV_AT_EPOCH":"5915","REF_FRAME":"TEME","OBJECT_ID":"2020-055C","RA_OF_ASC_NODE":"4.8930","FILE":"3103208","PERIOD":"95.592","OBJECT_NAME":"STARLINK-1526","CENTER_NAME":"EARTH","MEAN_MOTION_DOT":"0.00001094","COUNTRY_CODE":"US","NORAD_CAT_ID":"46029","PERIAPSIS":"546.242","EPHEMERIS_TYPE":"0","DECAY_DATE":null,"SEMIMAJOR_AXIS":"6925.336","ECCENTRICITY":"0.00013850","MEAN_MOTION_DDOT":"0.0000000000000","BSTAR":"0.00009228600000","TIME_SYSTEM":"UTC","MEAN_ELEMENT_THEORY":"SGP4","OBJECT_TYPE":"PAYLOAD","MEAN_MOTION":"15.06404036","APOAPSIS":"548.160","TLE_LINE2":"2 46029  53.0563   4.8930 0001385 109.7540 250.3599 15.06404036 59154","SITE":"AFETR","RCS_SIZE":"LARGE","ARG_OF_PERICENTER":"109.7540","ELEMENT_SET_NO":"999","INCLINATION":"53.0563","GP_ID":"183443553","TLE_LINE1":"1 46029U 20055C   21237.75543788  .00001094  00000-0  92286-4 0  9990","MEAN_ANOMALY":"250.3599","LAUNCH_DATE":"2020-08-07","EPOCH":"2021-08-25T18:07:49.832832","CLASSIFICATION_TYPE":"U"},{"MEAN_MOTION_DOT":"0.00002398","COUNTRY_CODE":"US","NORAD_CAT_ID":"46030","PERIOD":"95.592","FILE":"3103208","OBJECT_NAME":"STARLINK-1534","CENTER_NAME":"EARTH","RA_OF_ASC_NODE":"4.5179","REV_AT_EPOCH":"5912","REF_FRAME":"TEME","OBJECT_ID":"2020-055D","BSTAR":"0.00017984000000","ECCENTRICITY":"0.00015480","MEAN_MOTION_DDOT":"0.0000000000000","EPHEMERIS_TYPE":"0","DECAY_DATE":null,"SEMIMAJOR_AXIS":"6925.365","PERIAPSIS":"546.158","ELEMENT_SET_NO":"999","INCLINATION":"53.0550","GP_ID":"183444799","ARG_OF_PERICENTER":"113.2417","RCS_SIZE":"LARGE","TLE_LINE2":"2 46030  53.0550   4.5179 0001548 113.2417 246.8735 15.06394709 59122","SITE":"AFETR","TIME_SYSTEM":"UTC","MEAN_ELEMENT_THEORY":"SGP4","OBJECT_TYPE":"PAYLOAD","MEAN_MOTION":"15.06394709","APOAPSIS":"548.302","EPOCH":"2021-08-25T20:09:55.286208","CLASSIFICATION_TYPE":"U","LAUNCH_DATE":"2020-08-07","MEAN_ANOMALY":"246.8735","TLE_LINE1":"1 46030U 20055D   21237.84022322  .00002398  00000-0  17984-3 0  9997"},{"NORAD_CAT_ID":"46031","MEAN_MOTION_DOT":"0.00000817","COUNTRY_CODE":"US","OBJECT_NAME":"STARLINK-1544","CENTER_NAME":"EARTH","FILE":"3103208","PERIOD":"95.592","RA_OF_ASC_NODE":"4.4938","OBJECT_ID":"2020-055E","REV_AT_EPOCH":"5915","REF_FRAME":"TEME","BSTAR":"0.00007374500000","MEAN_MOTION_DDOT":"0.0000000000000","ECCENTRICITY":"0.00015520","SEMIMAJOR_AXIS":"6925.364","DECAY_DATE":null,"EPHEMERIS_TYPE":"0","PERIAPSIS":"546.154","GP_ID":"183445044","INCLINATION":"53.0573","ELEMENT_SET_NO":"999","ARG_OF_PERICENTER":"117.2610","RCS_SIZE":"LARGE","TLE_LINE2":"2 46031  53.0573   4.4938 0001552 117.2610 242.8537 15.06394868 59159","SITE":"AFETR","MEAN_MOTION":"15.06394868","APOAPSIS":"548.304","OBJECT_TYPE":"PAYLOAD","MEAN_ELEMENT_THEORY":"SGP4","TIME_SYSTEM":"UTC","EPOCH":"2021-08-25T20:15:13.953600","CLASSIFICATION_TYPE":"U","MEAN_ANOMALY":"242.8537","LAUNCH_DATE":"2020-08-07","TLE_LINE1":"1 46031U 20055E   21237.84391150  .00000817  00000-0  73745-4 0  9998"},{"EPOCH":"2021-08-25T17:46:37.393248","CLASSIFICATION_TYPE":"U","TLE_LINE1":"1 46032U 20055F   21237.74071057  .00003318  00000-0  24172-3 0  9997","LAUNCH_DATE":"2020-08-07","MEAN_ANOMALY":"235.6950","RCS_SIZE":"LARGE","ARG_OF_PERICENTER":"124.4263","GP_ID":"183445304","ELEMENT_SET_NO":"999","INCLINATION":"53.0567","MEAN_MOTION":"15.06378987","APOAPSIS":"548.921","OBJECT_TYPE":"PAYLOAD","MEAN_ELEMENT_THEORY":"SGP4","TIME_SYSTEM":"UTC","TLE_LINE2":"2 46032  53.0567   4.9620 0002372 124.4263 235.6950 15.06378987 59154","SITE":"AFETR","MEAN_MOTION_DDOT":"0.0000000000000","ECCENTRICITY":"0.00023720","BSTAR":"0.00024172000000","PERIAPSIS":"545.635","SEMIMAJOR_AXIS":"6925.413","DECAY_DATE":null,"EPHEMERIS_TYPE":"0","OBJECT_NAME":"STARLINK-1555","CENTER_NAME":"EARTH","FILE":"3103208","PERIOD":"95.593","NORAD_CAT_ID":"46032","COUNTRY_CODE":"US","MEAN_MOTION_DOT":"0.00003318","OBJECT_ID":"2020-055F","REF_FRAME":"TEME","REV_AT_EPOCH":"5915","RA_OF_ASC_NODE":"4.9620"},{"EPOCH":"2021-08-25T17:20:04.413984","CLASSIFICATION_TYPE":"U","LAUNCH_DATE":"2020-08-07","MEAN_ANOMALY":"253.5907","TLE_LINE1":"1 46033U 20055G   21237.72227331 -.00000746  00000-0 -31181-4 0  9997","INCLINATION":"53.0558","ELEMENT_SET_NO":"999","GP_ID":"183444054","ARG_OF_PERICENTER":"106.5229","RCS_SIZE":"LARGE","TLE_LINE2":"2 46033  53.0558   5.0377 0001339 106.5229 253.5907 15.06396010 59126","SITE":"AFETR","OBJECT_TYPE":"PAYLOAD","MEAN_MOTION":"15.06396010","APOAPSIS":"548.153","TIME_SYSTEM":"UTC","MEAN_ELEMENT_THEORY":"SGP4","BSTAR":"-0.00003118100000","ECCENTRICITY":"0.00013390","MEAN_MOTION_DDOT":"0.0000000000000","DECAY_DATE":null,"SEMIMAJOR_AXIS":"6925.361","EPHEMERIS_TYPE":"0","PERIAPSIS":"546.298","MEAN_MOTION_DOT":"-0.00000746","COUNTRY_CODE":"US","NORAD_CAT_ID":"46033","PERIOD":"95.592","FILE":"3103208","OBJECT_NAME":"STARLINK-1556","CENTER_NAME":"EARTH","RA_OF_ASC_NODE":"5.0377","OBJECT_ID":"2020-055G","REV_AT_EPOCH":"5912","REF_FRAME":"TEME"}];
